start=new Date('2022-11-06T00:00:00.000Z').valueOf();
sats=[{"DECAY_DATE":null,"NORAD_CAT_ID":"53414","EPOCH":"2022-11-05T16:26:46.027680","INCLINATION":"53.2144","MEAN_MOTION_DOT":"0.00004814","EPHEMERIS_TYPE":"0","ELEMENT_SET_NO":"999","PERIOD":"95.438","CLASSIFICATION_TYPE":"U","TLE_LINE1":"1 53414U 22097AC  22309.68525495  .00004814  00000-0  32044-3 0  9990","SITE":"AFETR","APOAPSIS":"541.205","OBJECT_TYPE":"PAYLOAD","OBJECT_ID":"2022-097AC","FILE":"3646512","LAUNCH_DATE":"2022-08-10","PERIAPSIS":"538.352","COUNTRY_CODE":"US","REF_FRAME":"TEME","OBJECT_NAME":"STARLINK-4304","BSTAR":"0.00032044000000","TLE_LINE2":"2 53414  53.2144 190.9306 0002062  68.9429 291.1783 15.08829124 14460","ARG_OF_PERICENTER":"68.9429","MEAN_MOTION_DDOT":"0.0000000000000","REV_AT_EPOCH":"1446","ECCENTRICITY":"0.00020620","TIME_SYSTEM":"UTC","RCS_SIZE":"LARGE","GP_ID":"217021254","MEAN_MOTION":"15.08829124","SEMIMAJOR_AXIS":"6917.914","CENTER_NAME":"EARTH","MEAN_ANOMALY":"291.1783","RA_OF_ASC_NODE":"190.9306","MEAN_ELEMENT_THEORY":"SGP4"},{"SITE":"AFETR","TLE_LINE1":"1 53415U 22097AD  22309.68158213 -.00004529  00000-0 -26667-3 0  9990","APOAPSIS":"541.023","CLASSIFICATION_TYPE":"U","MEAN_MOTION_DOT":"-0.00004529","ELEMENT_SET_NO":"999","EPHEMERIS_TYPE":"0","PERIOD":"95.438","DECAY_DATE":null,"NORAD_CAT_ID":"53415","EPOCH":"2022-11-05T16:21:28.696032","INCLINATION":"53.2153","RCS_SIZE":"LARGE","TIME_SYSTEM":"UTC","GP_ID":"217021080","MEAN_MOTION":"15.08833341","SEMIMAJOR_AXIS":"6917.901","CENTER_NAME":"EARTH","MEAN_ANOMALY":"288.6000","RA_OF_ASC_NODE":"190.9485","MEAN_ELEMENT_THEORY":"SGP4","OBJECT_NAME":"STARLINK-4479","TLE_LINE2":"2 53415  53.2153 190.9485 0001818  71.5189 288.6000 15.08833341 14447","BSTAR":"-0.00026667000000","ARG_OF_PERICENTER":"71.5189","MEAN_MOTION_DDOT":"0.0000000000000","REV_AT_EPOCH":"1444","ECCENTRICITY":"0.00018180","FILE":"3646512","LAUNCH_DATE":"2022-08-10","PERIAPSIS":"538.508","COUNTRY_CODE":"US","REF_FRAME":"TEME","OBJECT_TYPE":"PAYLOAD","OBJECT_ID":"2022-097AD"},{"CLASSIFICATION_TYPE":"U","TLE_LINE1":"1 53416U 22097AE  22309.80397900 -.00007196  00000-0 -43468-3 0  9994","APOAPSIS":"541.325","SITE":"AFETR","INCLINATION":"53.2171","DECAY_DATE":null,"NORAD_CAT_ID":"53416","EPOCH":"2022-11-05T19:17:43.785600","PERIOD":"95.439","MEAN_MOTION_DOT":"-0.00007196","ELEMENT_SET_NO":"999","EPHEMERIS_TYPE":"0","MEAN_MOTION_DDOT":"0.0000000000000","REV_AT_EPOCH":"1446","ECCENTRICITY":"0.00021870","OBJECT_NAME":"STARLINK-4480","TLE_LINE2":"2 53416  53.2171 190.3884 0002187  54.1890 305.9305 15.08818031 14463","BSTAR":"-0.00043468000000","ARG_OF_PERICENTER":"54.1890","SEMIMAJOR_AXIS":"6917.948","CENTER_NAME":"EARTH","MEAN_ANOMALY":"305.9305","MEAN_ELEMENT_THEORY":"SGP4","RA_OF_ASC_NODE":"190.3884","RCS_SIZE":"LARGE","TIME_SYSTEM":"UTC","GP_ID":"217021427","MEAN_MOTION":"15.08818031","OBJECT_ID":"2022-097AE","OBJECT_TYPE":"PAYLOAD","PERIAPSIS":"538.300","COUNTRY_CODE":"US","REF_FRAME":"TEME","FILE":"3646512","LAUNCH_DATE":"2022-08-10"},{"OBJECT_ID":"2022-097AF","OBJECT_TYPE":"PAYLOAD","PERIAPSIS":"538.310","REF_FRAME":"TEME","COUNTRY_CODE":"US","FILE":"3646512","LAUNCH_DATE":"2022-08-10","REV_AT_EPOCH":"1445","MEAN_MOTION_DDOT":"0.0000000000000","ECCENTRICITY":"0.00021850","BSTAR":"-0.00052348000000","TLE_LINE2":"2 53417  53.2147 190.6571 0002185  52.9790 307.1402 15.08814958 14451","OBJECT_NAME":"STARLINK-4484","ARG_OF_PERICENTER":"52.9790","CENTER_NAME":"EARTH","SEMIMAJOR_AXIS":"6917.957","RA_OF_ASC_NODE":"190.6571","MEAN_ELEMENT_THEORY":"SGP4","MEAN_ANOMALY":"307.1402","RCS_SIZE":"LARGE","TIME_SYSTEM":"UTC","GP_ID":"217020907","MEAN_MOTION":"15.08814958","INCLINATION":"53.2147","NORAD_CAT_ID":"53417","DECAY_DATE":null,"EPOCH":"2022-11-05T17:51:33.647616","PERIOD":"95.439","MEAN_MOTION_DOT":"-0.00008604","EPHEMERIS_TYPE":"0","ELEMENT_SET_NO":"999","CLASSIFICATION_TYPE":"U","SITE":"AFETR","TLE_LINE1":"1 53417U 22097AF  22309.74413944 -.00008604  00000-0 -52348-3 0  9997","APOAPSIS":"541.334"},{"NORAD_CAT_ID":"53418","DECAY_DATE":null,"EPOCH":"2022-11-05T22:00:01.999584","INCLINATION":"53.2172","MEAN_MOTION_DOT":"-0.01182421","EPHEMERIS_TYPE":"0","ELEMENT_SET_NO":"999","PERIOD":"95.070","CLASSIFICATION_TYPE":"U","TLE_LINE1":"1 53418U 22097AG  22309.91668981 -.01182421  00000-0 -68738-1 0  9999","APOAPSIS":"522.780","SITE":"AFETR","OBJECT_TYPE":"PAYLOAD","OBJECT_ID":"2022-097AG","FILE":"3646512","LAUNCH_DATE":"2022-08-10","PERIAPSIS":"521.158","REF_FRAME":"TEME","COUNTRY_CODE":"US","TLE_LINE2":"2 53418  53.2172 179.5025 0001175  91.3283 316.8795 15.14674550  1303","BSTAR":"-0.06873800000000","OBJECT_NAME":"STARLINK-4481","ARG_OF_PERICENTER":"91.3283","REV_AT_EPOCH":"130","MEAN_MOTION_DDOT":"0.0000000000000","ECCENTRICITY":"0.00011750","RCS_SIZE":"LARGE","TIME_SYSTEM":"UTC","MEAN_MOTION":"15.14674550","GP_ID":"217021527","CENTER_NAME":"EARTH","SEMIMAJOR_AXIS":"6900.104","MEAN_ELEMENT_THEORY":"SGP4","RA_OF_ASC_NODE":"179.5025","MEAN_ANOMALY":"316.8795"},{"TLE_LINE1":"1 53419U 22097AH  22309.74046248 -.00003866  00000-0 -22493-3 0  9991","APOAPSIS":"540.968","SITE":"AFETR","CLASSIFICATION_TYPE":"U","MEAN_MOTION_DOT":"-0.00003866","EPHEMERIS_TYPE":"0","ELEMENT_SET_NO":"999","PERIOD":"95.438","NORAD_CAT_ID":"53419","DECAY_DATE":null,"EPOCH":"2022-11-05T17:46:15.958272","INCLINATION":"53.2184","RCS_SIZE":"LARGE","TIME_SYSTEM":"UTC","GP_ID":"217020663","MEAN_MOTION":"15.08834198","CENTER_NAME":"EARTH","SEMIMAJOR_AXIS":"6917.898","MEAN_ELEMENT_THEORY":"SGP4","RA_OF_ASC_NODE":"190.6761","MEAN_ANOMALY":"311.9886","BSTAR":"-0.00022493000000","TLE_LINE2":"2 53419  53.2184 190.6761 0001741  48.1255 311.9886 15.08834198 14452","OBJECT_NAME":"STARLINK-4476","ARG_OF_PERICENTER":"48.1255","REV_AT_EPOCH":"1445","MEAN_MOTION_DDOT":"0.0000000000000","ECCENTRICITY":"0.00017410","FILE":"3646512","LAUNCH_DATE":"2022-08-10","PERIAPSIS":"538.559","REF_FRAME":"TEME","COUNTRY_CODE":"US","OBJECT_TYPE":"PAYLOAD","OBJECT_ID":"2022-097AH"},{"TLE_LINE1":"1 53420U 22097AJ  22309.39821891 -.00000746  00000-0 -28780-4 0  9999","APOAPSIS":"540.978","SITE":"AFETR","CLASSIFICATION_TYPE":"U","EPHEMERIS_TYPE":"0","ELEMENT_SET_NO":"999","MEAN_MOTION_DOT":"-0.00000746","PERIOD":"95.438","EPOCH":"2022-11-05T09:33:26.113824","NORAD_CAT_ID":"53420","DECAY_DATE":null,"INCLINATION":"53.2188","MEAN_MOTION":"15.08830245","GP_ID":"216975769","RCS_SIZE":"LARGE","TIME_SYSTEM":"UTC","RA_OF_ASC_NODE":"192.2091","MEAN_ELEMENT_THEORY":"SGP4","MEAN_ANOMALY":"305.1696","CENTER_NAME":"EARTH","SEMIMAJOR_AXIS":"6917.910","ARG_OF_PERICENTER":"54.9459","TLE_LINE2":"2 53420  53.2188 192.2091 0001738  54.9459 305.1696 15.08830245 13945","BSTAR":"-0.00002878000000","OBJECT_NAME":"STARLINK-4552","ECCENTRICITY":"0.00017380","REV_AT_EPOCH":"1394","MEAN_MOTION_DDOT":"0.0000000000000","LAUNCH_DATE":"2022-08-10","FILE":"3645559","REF_FRAME":"TEME","COUNTRY_CODE":"US","PERIAPSIS":"538.573","OBJECT_TYPE":"PAYLOAD","OBJECT_ID":"2022-097AJ"},{"RA_OF_ASC_NODE":"192.1781","MEAN_ELEMENT_THEORY":"SGP4","MEAN_ANOMALY":"315.0496","CENTER_NAME":"EARTH","SEMIMAJOR_AXIS":"6917.900","MEAN_MOTION":"15.08833539","GP_ID":"216975777","TIME_SYSTEM":"UTC","RCS_SIZE":"LARGE","ECCENTRICITY":"0.00020790","REV_AT_EPOCH":"1394","MEAN_MOTION_DDOT":"0.0000000000000","ARG_OF_PERICENTER":"45.0664","TLE_LINE2":"2 53421  53.2183 192.1781 0002079  45.0664 315.0496 15.08833539 13941","BSTAR":"0.00001064500000","OBJECT_NAME":"STARLINK-4545","REF_FRAME":"TEME","COUNTRY_CODE":"US","PERIAPSIS":"538.327","LAUNCH_DATE":"2022-08-10","FILE":"3645559","OBJECT_ID":"2022-097AK","OBJECT_TYPE":"PAYLOAD","TLE_LINE1":"1 53421U 22097AK  22309.40557364 -.00000119  00000-0  10645-4 0  9997","SITE":"AFETR","APOAPSIS":"541.203","CLASSIFICATION_TYPE":"U","PERIOD":"95.438","ELEMENT_SET_NO":"999","EPHEMERIS_TYPE":"0","MEAN_MOTION_DOT":"-0.00000119","INCLINATION":"53.2183","EPOCH":"2022-11-05T09:44:01.562496","NORAD_CAT_ID":"53421","DECAY_DATE":null},{"OBJECT_ID":"2022-097AL","OBJECT_TYPE":"PAYLOAD","PERIAPSIS":"538.438","COUNTRY_CODE":"US","REF_FRAME":"TEME","FILE":"3646512","LAUNCH_DATE":"2022-08-10","MEAN_MOTION_DDOT":"0.0000000000000","REV_AT_EPOCH":"1448","ECCENTRICITY":"0.00018860","OBJECT_NAME":"STARLINK-4546","BSTAR":"-0.00002671600000","TLE_LINE2":"2 53422  53.2207 190.4613 0001886  52.2965 307.8198 15.08840966 14483","ARG_OF_PERICENTER":"52.2965","SEMIMAJOR_AXIS":"6917.877","CENTER_NAME":"EARTH","MEAN_ANOMALY":"307.8198","RA_OF_ASC_NODE":"190.4613","MEAN_ELEMENT_THEORY":"SGP4","TIME_SYSTEM":"UTC","RCS_SIZE":"LARGE","MEAN_MOTION":"15.08840966","GP_ID":"217021255","INCLINATION":"53.2207","DECAY_DATE":null,"NORAD_CAT_ID":"53422","EPOCH":"2022-11-05T18:55:09.228000","PERIOD":"95.437","MEAN_MOTION_DOT":"-0.00000713","ELEMENT_SET_NO":"999","EPHEMERIS_TYPE":"0","CLASSIFICATION_TYPE":"U","TLE_LINE1":"1 53422U 22097AL  22309.78830125 -.00000713  00000-0 -26716-4 0  9995","SITE":"AFETR","APOAPSIS":"541.047"},{"MEAN_MOTION_DDOT":"0.0000000000000","REV_AT_EPOCH":"1446","ECCENTRICITY":"0.00014860","OBJECT_NAME":"STARLINK-4539","TLE_LINE2":"2 53423  53.2175 190.4077 0001486  63.6826 296.4319 15.08806344 14468","BSTAR":"-0.00059949000000","ARG_OF_PERICENTER":"63.6826","SEMIMAJOR_AXIS":"6917.983","CENTER_NAME":"EARTH","MEAN_ANOMALY":"296.4319","RA_OF_ASC_NODE":"190.4077","MEAN_ELEMENT_THEORY":"SGP4","RCS_SIZE":"LARGE","TIME_SYSTEM":"UTC","MEAN_MOTION":"15.08806344","GP_ID":"217021081","OBJECT_ID":"2022-097AM","OBJECT_TYPE":"PAYLOAD","PERIAPSIS":"538.820","COUNTRY_CODE":"US","REF_FRAME":"TEME","FILE":"3646512","LAUNCH_DATE":"2022-08-10","CLASSIFICATION_TYPE":"U","TLE_LINE1":"1 53423U 22097AM  22309.79934290 -.00009807  00000-0 -59949-3 0  9991","APOAPSIS":"540.876","SITE":"AFETR","INCLINATION":"53.2175","DECAY_DATE":null,"NORAD_CAT_ID":"53423","EPOCH":"2022-11-05T19:11:03.226560","PERIOD":"95.440","MEAN_MOTION_DOT":"-0.00009807","ELEMENT_SET_NO":"999","EPHEMERIS_TYPE":"0"}];
